OBJECT_NAME,OBJECT_ID,EPOCH,MEAN_MOTION,ECCENTRICITY,INCLINATION,RA_OF_ASC_NODE,ARG_OF_PERICENTER,MEAN_ANOMALY,EPHEMERIS_TYPE,CLASSIFICATION_TYPE,NORAD_CAT_ID,ELEMENT_SET_NO,REV_AT_EPOCH,BSTAR,MEAN_MOTION_DOT,MEAN_MOTION_DDOT
GAOFEN-3 03,2022-035A,2026-07-16T20:29:50.942112,14.42217643,.0001762,98.4061,206.0042,88.0615,272.0777,0,U,52200,999,22512,-.42965E-4,-.185E-5,0
DAQI-1,2022-039A,2026-07-16T20:49:21.376992,14.57692423,.000408,98.1489,136.1073,143.5097,216.6380,0,U,52257,999,22626,-.13426E-4,-.106E-5,0
BRO-6,2022-047AE,2026-07-16T19:17:35.136096,15.52655716,.0002778,97.3389,289.4719,300.7382,59.3597,0,U,52422,999,23574,.45301E-3,.27861E-3,0
JILIN-1 GAOFEN 3D27,2022-048B,2026-07-16T19:24:54.594144,15.83506405,.000545,97.5738,314.6181,240.8089,119.2635,0,U,52444,999,23415,.63539E-3,.140046E-2,0
JILIN-1 GAOFEN 3D28,2022-048C,2026-07-16T20:38:57.712416,15.88715674,.0005054,97.5664,314.9882,240.0974,119.9796,0,U,52445,999,23422,.66064E-3,.183734E-2,.14244E-4
VIGORIDE-3,2022-057AE,2026-07-16T19:52:02.498880,15.27558851,.0008741,97.6645,338.5994,29.6565,330.5168,0,U,52760,999,22968,.10835E-3,.2844E-4,0
ION SCV-006,2022-057AF,2026-07-16T10:15:56.748096,15.45938284,.0016645,97.6136,347.4716,13.2924,346.8760,0,U,52761,999,23063,.14798E-3,.7142E-4,0
SHERPA-AC1,2022-057AH,2026-07-16T08:58:18.535296,15.36640452,.0007089,97.6722,347.8299,359.3731,0.7502,0,U,52763,999,23018,.10798E-3,.3777E-4,0
OMNI-L2,2022-057AR,2026-07-16T15:21:09.463104,14.81439717,.0005786,97.4701,258.0176,214.9422,145.1412,0,U,52771,999,22475,.80577E-4,.583E-5,0
STEP CUBE LAB-II,2022-065D,2026-07-16T21:07:45.962976,14.63344628,.0007349,98.2263,341.6964,296.2455,63.7991,0,U,52897,999,21584,.87176E-4,.402E-5,0
RANDEV,2022-065E,2026-07-16T20:57:59.510880,14.63733398,.0006716,98.2248,342.0546,297.2042,62.8475,0,U,52898,999,21559,.94787E-4,.445E-5,0
SNUGLITE-II,2022-065F,2026-07-16T08:15:46.073664,14.64395222,.0006212,98.2237,342.1292,296.1987,63.8576,0,U,52899,999,21526,.84841E-4,.4E-5,0
MIMAN,2022-065G,2026-07-16T14:48:49.668192,14.61872446,.0006378,98.2298,339.9574,298.5166,61.5393,0,U,52900,999,21474,.5356E-4,.22E-5,0
STARLINK-4362,2022-077A,2026-07-16T12:10:30.491904,15.05654554,.0001281,97.2857,14.8843,100.5344,259.6028,0,U,53043,999,22029,.51296E-4,.684E-5,0
LARES-2,2022-080A,2026-07-11T06:32:52.952640,6.38965058,.00051703,70.1562,297.0691,331.4390,28.5953,0,U,53105,999,9320,0,-.16E-6,0
GREENCUBE (IO-117),2022-080E,2026-07-16T06:55:09.765408,6.42583343,.000908,70.1408,288.1261,283.0875,76.8771,0,U,53109,999,9393,0,-.3E-7,0
STARLINK-4410,2022-084R,2026-07-16T20:00:01.999008,15.41440941,.000126,97.5994,259.9862,91.2493,38.7311,0,U,53204,999,584,-.10905E-2,-.45391E-3,0
COSMOS 2558,2022-089A,2026-07-16T19:33:00.774720,15.82025348,.0004114,97.2239,303.2339,224.5907,135.5031,0,U,53323,999,22250,.51702E-3,.105869E-2,0
TECMS,2022-090A,2026-07-16T21:18:18.737568,15.21239573,.0005474,97.3124,265.1533,80.9360,279.2495,0,U,53346,999,21932,.85662E-4,.1846E-4,0
DONGPO 02,2022-098J,2026-07-16T20:32:42.280224,15.81490182,.0004509,97.5563,331.7808,212.4199,147.6792,0,U,53452,999,21947,.56382E-3,.112758E-2,0
DONGPO 01,2022-098K,2026-07-16T19:57:48.474720,15.78394656,.0002931,97.5623,332.1861,203.9930,156.1200,0,U,53453,999,21942,.53732E-3,.93147E-3,0
STARLINK-4400,2022-099D,2026-07-16T18:03:24.742080,15.05657960,.0001587,97.2840,315.1966,127.6355,232.5016,0,U,53468,999,21539,.17302E-4,.193E-5,0
STARLINK-4621,2022-105AE,2026-07-16T14:56:00.201120,15.05656273,.0001675,97.2834,75.0898,93.5228,266.6191,0,U,53676,999,21263,.21416E-4,.253E-5,0
SHERPA-LTC2,2022-107BG,2026-07-15T22:47:59.690688,14.69921414,.0392888,53.2372,98.5529,306.8353,49.7183,0,U,53754,999,20677,.1104E-3,.1905E-4,0
CENTISPACE-1 S3,2022-108A,2026-07-16T19:47:13.719840,14.61284244,.001079,53.5335,292.7048,68.3500,291.8624,0,U,53757,999,20586,.59473E-4,.106E-5,0
CENTISPACE-1 S4,2022-108B,2026-07-16T19:04:34.785984,14.61970765,.0010117,53.5310,290.2041,57.6946,302.5008,0,U,53758,999,20589,.35819E-4,-.1E-6,0
BLUEWALKER-3,2022-111AL,2026-07-16T11:28:59.624832,15.38618077,.0004563,53.2279,256.4208,272.3559,87.6923,0,U,53807,999,21471,.75111E-4,.2512E-4,0
YUNHAI-1 03,2022-115A,2026-07-16T20:50:06.020736,14.32737567,.0004057,98.5545,195.6401,333.9728,26.1251,0,U,53877,999,19976,.96622E-4,.219E-5,0
CENTISPACE-1 S5,2022-126A,2026-07-16T19:17:18.840192,14.63058468,.0014308,54.9990,94.4396,127.5204,232.7093,0,U,54020,999,20137,.10248E-3,.34E-5,0
CENTISPACE-1 S6,2022-126B,2026-07-16T19:28:53.154048,14.62318324,.0016105,54.9993,96.4119,128.8380,231.4054,0,U,54021,999,20133,.90481E-4,.272E-5,0
