GAOFEN-3 03             
1 52200U 22035A   26197.85406183 -.00000185  00000+0 -42965-4 0  9996
2 52200  98.4061 206.0042 0001762  88.0615 272.0777 14.42217643225125
DAQI-1                  
1 52257U 22039A   26197.86760853 -.00000106  00000+0 -13426-4 0  9993
2 52257  98.1489 136.1073 0004080 143.5097 216.6380 14.57692423226261
BRO-6                   
1 52422U 22047AE  26197.80387889  .00027861  00000+0  45301-3 0  9995
2 52422  97.3389 289.4719 0002778 300.7382  59.3597 15.52655716235745
JILIN-1 GAOFEN 3D27     
1 52444U 22048B   26197.80896521  .00140046  00000+0  63539-3 0  9992
2 52444  97.5738 314.6181 0005450 240.8089 119.2635 15.83506405234158
JILIN-1 GAOFEN 3D28     
1 52445U 22048C   26197.86039019  .00183734  14244-4  66064-3 0  9997
2 52445  97.5664 314.9882 0005054 240.0974 119.9796 15.88715674234221
VIGORIDE-3              
1 52760U 22057AE  26197.82780670  .00002844  00000+0  10835-3 0  9996
2 52760  97.6645 338.5994 0008741  29.6565 330.5168 15.27558851229683
ION SCV-006             
1 52761U 22057AF  26197.42774014  .00007142  00000+0  14798-3 0  9996
2 52761  97.6136 347.4716 0016645  13.2924 346.8760 15.45938284230637
SHERPA-AC1              
1 52763U 22057AH  26197.37382564  .00003777  00000+0  10798-3 0  9993
2 52763  97.6722 347.8299 0007089 359.3731   0.7502 15.36640452230189
OMNI-L2                 
1 52771U 22057AR  26197.63969286  .00000583  00000+0  80577-4 0  9998
2 52771  97.4701 258.0176 0005786 214.9422 145.1412 14.81439717224754
STEP CUBE LAB-II        
1 52897U 22065D   26197.88039309  .00000402  00000+0  87176-4 0  9999
2 52897  98.2263 341.6964 0007349 296.2455  63.7991 14.63344628215848
RANDEV                  
1 52898U 22065E   26197.87360545  .00000445  00000+0  94787-4 0  9991
2 52898  98.2248 342.0546 0006716 297.2042  62.8475 14.63733398215598
SNUGLITE-II             
1 52899U 22065F   26197.34428326  .00000400  00000+0  84841-4 0  9997
2 52899  98.2237 342.1292 0006212 296.1987  63.8576 14.64395222215261
MIMAN                   
1 52900U 22065G   26197.61724153  .00000220  00000+0  53560-4 0  9991
2 52900  98.2298 339.9574 0006378 298.5166  61.5393 14.61872446214745
STARLINK-4362           
1 53043U 22077A   26197.50729736  .00000684  00000+0  51296-4 0  9991
2 53043  97.2857  14.8843 0001281 100.5344 259.6028 15.05654554220299
LARES-2                 
1 53105U 22080A   26192.27283510 -.00000016  00000+0  00000+0 0  9990
2 53105  70.1562 297.0691 0005170 331.4390  28.5953  6.38965058 93203
GREENCUBE (IO-117)      
1 53109U 22080E   26197.28830747 -.00000003  00000+0  00000+0 0  9996
2 53109  70.1408 288.1261 0009080 283.0875  76.8771  6.42583343 93936
STARLINK-4410           
1 53204U 22084R   26197.83335647 -.00045391  00000+0 -10905-2 0  9994
2 53204  97.5994 259.9862 0001260  91.2493  38.7311 15.41440941  5840
COSMOS 2558             
1 53323U 22089A   26197.81459230  .00105869  00000+0  51702-3 0  9990
2 53323  97.2239 303.2339 0004114 224.5907 135.5031 15.82025348222509
TECMS                   
1 53346U 22090A   26197.88771687  .00001846  00000+0  85662-4 0  9990
2 53346  97.3124 265.1533 0005474  80.9360 279.2495 15.21239573219323
DONGPO 02               
1 53452U 22098J   26197.85604491  .00112758  00000+0  56382-3 0  9992
2 53452  97.5563 331.7808 0004509 212.4199 147.6792 15.81490182219470
DONGPO 01               
1 53453U 22098K   26197.83181105  .00093147  00000+0  53732-3 0  9999
2 53453  97.5623 332.1861 0002931 203.9930 156.1200 15.78394656219426
STARLINK-4400           
1 53468U 22099D   26197.75236970  .00000193  00000+0  17302-4 0  9991
2 53468  97.2840 315.1966 0001587 127.6355 232.5016 15.05657960215392
STARLINK-4621           
1 53676U 22105AE  26197.62222455  .00000253  00000+0  21416-4 0  9997
2 53676  97.2834  75.0898 0001675  93.5228 266.6191 15.05656273212632
SHERPA-LTC2             
1 53754U 22107BG  26196.94999642  .00001905  00000+0  11040-3 0  9995
2 53754  53.2372  98.5529 0392888 306.8353  49.7183 14.69921414206777
CENTISPACE-1 S3         
1 53757U 22108A   26197.82446435  .00000106  00000+0  59473-4 0  9999
2 53757  53.5335 292.7048 0010790  68.3500 291.8624 14.61284244205863
CENTISPACE-1 S4         
1 53758U 22108B   26197.79484706 -.00000010  00000+0  35819-4 0  9992
2 53758  53.5310 290.2041 0010117  57.6946 302.5008 14.61970765205890
BLUEWALKER-3            
1 53807U 22111AL  26197.47846788  .00002512  00000+0  75111-4 0  9995
2 53807  53.2279 256.4208 0004563 272.3559  87.6923 15.38618077214717
YUNHAI-1 03             
1 53877U 22115A   26197.86812524  .00000219  00000+0  96622-4 0  9992
2 53877  98.5545 195.6401 0004057 333.9728  26.1251 14.32737567199769
CENTISPACE-1 S5         
1 54020U 22126A   26197.80369028  .00000340  00000+0  10248-3 0  9999
2 54020  54.9990  94.4396 0014308 127.5204 232.7093 14.63058468201375
CENTISPACE-1 S6         
1 54021U 22126B   26197.81172632  .00000272  00000+0  90481-4 0  9996
2 54021  54.9993  96.4119 0016105 128.8380 231.4054 14.62318324201338
